{
  "norad_id": 39157,
  "name": "ZHONGXING-11",
  "history": [
    {
      "epoch": "2026-03-27T18:42:52.752672Z",
      "apogee_km": 35791.90609443266,
      "perigee_km": 35783.300066882206,
      "latitude_deg": -0.010839088950380828,
      "longitude_deg": 97.86695830765989,
      "height_km": 35791.40753895563,
      "semi_major_axis_km": 42165.74008065744,
      "eccentricity": 0.00010205,
      "inclination_deg": 0.031,
      "raan_deg": 301.3781,
      "arg_perigee_deg": 84.5221,
      "mean_anomaly_deg": 177.8728,
      "mean_motion_rev_day": 1.00268189
    }
  ]
}